[{"OBJECT_NAME":"STARLINK-30362","OBJECT_ID":"2023-131P","EPOCH":"2026-03-09T22:00:01.999584","MEAN_MOTION":15.07966958,"ECCENTRICITY":7.146e-5,"INCLINATION":42.9998,"RA_OF_ASC_NODE":170.3976,"ARG_OF_PERICENTER":262.2955,"MEAN_ANOMALY":332.1553,"EPHEMERIS_TYPE":0,"CLASSIFICATION_TYPE":"U","NORAD_CAT_ID":57745,"ELEMENT_SET_NO":999,"REV_AT_EPOCH":578,"BSTAR":0.0029054609,"MEAN_MOTION_DOT":0.000455,"MEAN_MOTION_DDOT":0},{"OBJECT_NAME":"OBJECT D","OBJECT_ID":"2025-013D","EPOCH":"2026-03-09T22:45:56.369376","MEAN_MOTION":15.10588544,"ECCENTRICITY":0.0008827,"INCLINATION":97.6457,"RA_OF_ASC_NODE":238.3603,"ARG_OF_PERICENTER":18.3993,"MEAN_ANOMALY":341.7554,"EPHEMERIS_TYPE":0,"CLASSIFICATION_TYPE":"U","NORAD_CAT_ID":62732,"ELEMENT_SET_NO":999,"REV_AT_EPOCH":6229,"BSTAR":0.00036300228,"MEAN_MOTION_DOT":5.935e-5,"MEAN_MOTION_DDOT":0}]
